{
  "type": "FeatureCollection",
  "features": [
    {
      "type": "Feature",
      "properties": {
        "norad_id": 66690,
        "name": "TRANSPORTER-15AA",
        "group": "last-30-days",
        "lat": -15.12097035936867,
        "lon": -109.63461746210399,
        "alt_km": 517.2610091657625,
        "timestamp": "2025-12-26T21:25:51.732779+00:00",
        "meta_object_name": "TRANSPORTER-15AA",
        "meta_object_id": "2025-276AA",
        "meta_epoch": "2025-12-26T14:14:29.209632",
        "meta_mean_motion": 15.17103378,
        "meta_eccentricity": 0.00037328,
        "meta_inclination": 97.4388,
        "meta_ra_of_asc_node": 72.0946,
        "meta_arg_of_pericenter": 229.6339,
        "meta_mean_anomaly": 130.4569,
        "meta_ephemeris_type": 0,
        "meta_classification_type": "U",
        "meta_norad_cat_id": 66690,
        "meta_element_set_no": 999,
        "meta_rev_at_epoch": 422,
        "meta_bstar": 0.00034885936,
        "meta_mean_motion_dot": 6.85e-05,
        "meta_mean_motion_ddot": 0,
        "tle_line1": "1 66690U 25276AA  25360.59339363  .00006850  00000+0  34886-3 0  9996",
        "tle_line2": "2 66690  97.4388  72.0946 0003732 229.6339 130.4569 15.17103378  4227"
      },
      "geometry": {
        "type": "Point",
        "coordinates": [
          -109.63461746210399,
          -15.12097035936867
        ]
      }
    },
    {
      "type": "Feature",
      "properties": {
        "norad_id": 66691,
        "name": "TRANSPORTER-15AB",
        "group": "last-30-days",
        "lat": -29.637603743034003,
        "lon": -111.86126835487708,
        "alt_km": 517.2857940118984,
        "timestamp": "2025-12-26T21:25:51.732789+00:00",
        "meta_object_name": "TRANSPORTER-15AB",
        "meta_object_id": "2025-276AB",
        "meta_epoch": "2025-12-26T14:10:41.765952",
        "meta_mean_motion": 15.17376545,
        "meta_eccentricity": 0.00038401,
        "meta_inclination": 97.4412,
        "meta_ra_of_asc_node": 72.1064,
        "meta_arg_of_pericenter": 231.8002,
        "meta_mean_anomaly": 128.2887,
        "meta_ephemeris_type": 0,
        "meta_classification_type": "U",
        "meta_norad_cat_id": 66691,
        "meta_element_set_no": 999,
        "meta_rev_at_epoch": 422,
        "meta_bstar": 0.00056182022,
        "meta_mean_motion_dot": 0.00011165,
        "meta_mean_motion_ddot": 0,
        "tle_line1": "1 66691U 25276AB  25360.59076118  .00011165  00000+0  56182-3 0  9991",
        "tle_line2": "2 66691  97.4412  72.1064 0003840 231.8002 128.2887 15.17376545  4226"
      },
      "geometry": {
        "type": "Point",
        "coordinates": [
          -111.86126835487708,
          -29.637603743034003
        ]
      }
    },
    {
      "type": "Feature",
      "properties": {
        "norad_id": 66692,
        "name": "TRANSPORTER-15AC",
        "group": "last-30-days",
        "lat": -47.7256898350397,
        "lon": -115.85129350933356,
        "alt_km": 519.2290095037597,
        "timestamp": "2025-12-26T21:25:51.732801+00:00",
        "meta_object_name": "TRANSPORTER-15AC",
        "meta_object_id": "2025-276AC",
        "meta_epoch": "2025-12-26T04:36:08.314560",
        "meta_mean_motion": 15.17447229,
        "meta_eccentricity": 0.00017803,
        "meta_inclination": 97.4413,
        "meta_ra_of_asc_node": 71.7258,
        "meta_arg_of_pericenter": 246.4774,
        "meta_mean_anomaly": 113.6272,
        "meta_ephemeris_type": 0,
        "meta_classification_type": "U",
        "meta_norad_cat_id": 66692,
        "meta_element_set_no": 999,
        "meta_rev_at_epoch": 416,
        "meta_bstar": 0.00030393663,
        "meta_mean_motion_dot": 6.017e-05,
        "meta_mean_motion_ddot": 0,
        "tle_line1": "1 66692U 25276AC  25360.19176290  .00006017  00000+0  30394-3 0  9997",
        "tle_line2": "2 66692  97.4413  71.7258 0001780 246.4774 113.6272 15.17447229  4164"
      },
      "geometry": {
        "type": "Point",
        "coordinates": [
          -115.85129350933356,
          -47.7256898350397
        ]
      }
    },
    {
      "type": "Feature",
      "properties": {
        "norad_id": 66693,
        "name": "TRANSPORTER-15AD",
        "group": "last-30-days",
        "lat": -50.72440627294799,
        "lon": -116.79642277601279,
        "alt_km": 517.614114274541,
        "timestamp": "2025-12-26T21:25:51.732811+00:00",
        "meta_object_name": "TRANSPORTER-15AD",
        "meta_object_id": "2025-276AD",
        "meta_epoch": "2025-12-26T12:30:12.151008",
        "meta_mean_motion": 15.17721629,
        "meta_eccentricity": 0.00032598,
        "meta_inclination": 97.4366,
        "meta_ra_of_asc_node": 72.029,
        "meta_arg_of_pericenter": 256.8527,
        "meta_mean_anomaly": 103.2343,
        "meta_ephemeris_type": 0,
        "meta_classification_type": "U",
        "meta_norad_cat_id": 66693,
        "meta_element_set_no": 999,
        "meta_rev_at_epoch": 421,
        "meta_bstar": 0.00074434167,
        "meta_mean_motion_dot": 0.00014968,
        "meta_mean_motion_ddot": 0,
        "tle_line1": "1 66693U 25276AD  25360.52097397  .00014968  00000+0  74434-3 0  9992",
        "tle_line2": "2 66693  97.4366  72.0290 0003259 256.8527 103.2343 15.17721629  4215"
      },
      "geometry": {
        "type": "Point",
        "coordinates": [
          -116.79642277601279,
          -50.72440627294799
        ]
      }
    },
    {
      "type": "Feature",
      "properties": {
        "norad_id": 66694,
        "name": "YAM-9",
        "group": "last-30-days",
        "lat": -59.178491091034026,
        "lon": -120.23965101888467,
        "alt_km": 519.0801637949608,
        "timestamp": "2025-12-26T21:25:51.732822+00:00",
        "meta_object_name": "YAM-9",
        "meta_object_id": "2025-276AE",
        "meta_epoch": "2025-12-26T12:27:53.062560",
        "meta_mean_motion": 15.17624345,
        "meta_eccentricity": 0.00015838,
        "meta_inclination": 97.4414,
        "meta_ra_of_asc_node": 72.0476,
        "meta_arg_of_pericenter": 232.0177,
        "meta_mean_anomaly": 128.0914,
        "meta_ephemeris_type": 0,
        "meta_classification_type": "U",
        "meta_norad_cat_id": 66694,
        "meta_element_set_no": 999,
        "meta_rev_at_epoch": 421,
        "meta_bstar": 0.00054799558,
        "meta_mean_motion_dot": 0.00010964,
        "meta_mean_motion_ddot": 0,
        "tle_line1": "1 66694U 25276AE  25360.51936415  .00010964  00000+0  54800-3 0  9992",
        "tle_line2": "2 66694  97.4414  72.0476 0001583 232.0177 128.0914 15.17624345  4217"
      },
      "geometry": {
        "type": "Point",
        "coordinates": [
          -120.23965101888467,
          -59.178491091034026
        ]
      }
    },
    {
      "type": "Feature",
      "properties": {
        "norad_id": 66695,
        "name": "IRIDE FM1",
        "group": "last-30-days",
        "lat": -51.77927310608941,
        "lon": 81.99104407070388,
        "alt_km": 519.1382294378545,
        "timestamp": "2025-12-26T21:25:51.732834+00:00",
        "meta_object_name": "IRIDE FM1",
        "meta_object_id": "2025-276AF",
        "meta_epoch": "2025-12-26T10:35:22.917408",
        "meta_mean_motion": 15.18322645,
        "meta_eccentricity": 0.00019342,
        "meta_inclination": 97.4399,
        "meta_ra_of_asc_node": 71.9951,
        "meta_arg_of_pericenter": 145.0721,
        "meta_mean_anomaly": 215.0641,
        "meta_ephemeris_type": 0,
        "meta_classification_type": "U",
        "meta_norad_cat_id": 66695,
        "meta_element_set_no": 999,
        "meta_rev_at_epoch": 420,
        "meta_bstar": 0.0009220155,
        "meta_mean_motion_dot": 0.00018888,
        "meta_mean_motion_ddot": 0,
        "tle_line1": "1 66695U 25276AF  25360.44123747  .00018888  00000+0  92202-3 0  9992",
        "tle_line2": "2 66695  97.4399  71.9951 0001934 145.0721 215.0641 15.18322645  4206"
      },
      "geometry": {
        "type": "Point",
        "coordinates": [
          81.99104407070388,
          -51.77927310608941
        ]
      }
    },
    {
      "type": "Feature",
      "properties": {
        "norad_id": 66696,
        "name": "IRIDE FM2",
        "group": "last-30-days",
        "lat": -43.95989002663104,
        "lon": -114.83979181645726,
        "alt_km": 518.6365192249204,
        "timestamp": "2025-12-26T21:25:51.732845+00:00",
        "meta_object_name": "IRIDE FM2",
        "meta_object_id": "2025-276AG",
        "meta_epoch": "2025-12-26T14:06:53.384832",
        "meta_mean_motion": 15.17461225,
        "meta_eccentricity": 0.00025202,
        "meta_inclination": 97.4382,
        "meta_ra_of_asc_node": 72.0986,
        "meta_arg_of_pericenter": 247.3017,
        "meta_mean_anomaly": 112.7951,
        "meta_ephemeris_type": 0,
        "meta_classification_type": "U",
        "meta_norad_cat_id": 66696,
        "meta_element_set_no": 999,
        "meta_rev_at_epoch": 422,
        "meta_bstar": 0.00031870112,
        "meta_mean_motion_dot": 6.315e-05,
        "meta_mean_motion_ddot": 0,
        "tle_line1": "1 66696U 25276AG  25360.58811788  .00006315  00000+0  31870-3 0  9993",
        "tle_line2": "2 66696  97.4382  72.0986 0002520 247.3017 112.7951 15.17461225  4221"
      },
      "geometry": {
        "type": "Point",
        "coordinates": [
          -114.83979181645726,
          -43.95989002663104
        ]
      }
    }
  ]
}